[{"OBJECT_NAME":"SALSAT","OBJECT_ID":"2020-068K","EPOCH":"2026-04-03T22:39:05.415552","MEAN_MOTION":15.28700775,"ECCENTRICITY":0.00094367,"INCLINATION":97.8863,"RA_OF_ASC_NODE":92.5537,"ARG_OF_PERICENTER":192.637,"MEAN_ANOMALY":167.4633,"EPHEMERIS_TYPE":0,"CLASSIFICATION_TYPE":"U","NORAD_CAT_ID":46495,"ELEMENT_SET_NO":999,"REV_AT_EPOCH":30401,"BSTAR":0.00056346593,"MEAN_MOTION_DOT":0.00015678,"MEAN_MOTION_DDOT":0},{"OBJECT_NAME":"XW-3 (CAS-9)","OBJECT_ID":"2021-131B","EPOCH":"2026-04-04T06:14:35.577600","MEAN_MOTION":14.41285886,"ECCENTRICITY":0.00033478,"INCLINATION":98.4952,"RA_OF_ASC_NODE":187.0671,"ARG_OF_PERICENTER":336.1467,"MEAN_ANOMALY":23.9567,"EPHEMERIS_TYPE":0,"CLASSIFICATION_TYPE":"U","NORAD_CAT_ID":50466,"ELEMENT_SET_NO":999,"REV_AT_EPOCH":22446,"BSTAR":0.00032106738,"MEAN_MOTION_DOT":9.94e-6,"MEAN_MOTION_DDOT":0},{"OBJECT_NAME":"GREENCUBE (IO-117)","OBJECT_ID":"2022-080E","EPOCH":"2026-03-31T23:43:38.390592","MEAN_MOTION":6.4258319,"ECCENTRICITY":0.00089758,"INCLINATION":70.1536,"RA_OF_ASC_NODE":325.1039,"ARG_OF_PERICENTER":306.3934,"MEAN_ANOMALY":53.5898,"EPHEMERIS_TYPE":0,"CLASSIFICATION_TYPE":"U","NORAD_CAT_ID":53109,"ELEMENT_SET_NO":999,"REV_AT_EPOCH":8710,"BSTAR":0,"MEAN_MOTION_DOT":-3.0e-8,"MEAN_MOTION_DDOT":0},{"OBJECT_NAME":"UMKA 1 (RS40S)","OBJECT_ID":"2023-091G","EPOCH":"2026-04-04T06:00:02.957472","MEAN_MOTION":15.19999342,"ECCENTRICITY":0.00133499,"INCLINATION":97.5119,"RA_OF_ASC_NODE":153.2505,"ARG_OF_PERICENTER":24.6398,"MEAN_ANOMALY":335.5471,"EPHEMERIS_TYPE":0,"CLASSIFICATION_TYPE":"U","NORAD_CAT_ID":57172,"ELEMENT_SET_NO":999,"REV_AT_EPOCH":15277,"BSTAR":0.00058878007,"MEAN_MOTION_DOT":0.00012653,"MEAN_MOTION_DDOT":0},{"OBJECT_NAME":"CUBESX-HSE 3 (RS42S)","OBJECT_ID":"2023-091N","EPOCH":"2026-04-04T05:14:06.706752","MEAN_MOTION":15.29422428,"ECCENTRICITY":0.00106426,"INCLINATION":97.5151,"RA_OF_ASC_NODE":158.9533,"ARG_OF_PERICENTER":2.5564,"MEAN_ANOMALY":357.5728,"EPHEMERIS_TYPE":0,"CLASSIFICATION_TYPE":"U","NORAD_CAT_ID":57178,"ELEMENT_SET_NO":999,"REV_AT_EPOCH":15311,"BSTAR":0.00083457761,"MEAN_MOTION_DOT":0.00023821,"MEAN_MOTION_DDOT":0},{"OBJECT_NAME":"MONITOR-3 (RS58S)","OBJECT_ID":"2023-091Q","EPOCH":"2026-04-04T05:16:13.531584","MEAN_MOTION":15.26411137,"ECCENTRICITY":0.00117675,"INCLINATION":97.5146,"RA_OF_ASC_NODE":157.182,"ARG_OF_PERICENTER":8.3656,"MEAN_ANOMALY":351.7777,"EPHEMERIS_TYPE":0,"CLASSIFICATION_TYPE":"U","NORAD_CAT_ID":57180,"ELEMENT_SET_NO":999,"REV_AT_EPOCH":15300,"BSTAR":0.00075690674,"MEAN_MOTION_DOT":0.00019701,"MEAN_MOTION_DDOT":0},{"OBJECT_NAME":"MONITOR-4 (RS57S)","OBJECT_ID":"2023-091S","EPOCH":"2026-04-04T06:27:04.682016","MEAN_MOTION":15.26504679,"ECCENTRICITY":0.00117143,"INCLINATION":97.5139,"RA_OF_ASC_NODE":157.1979,"ARG_OF_PERICENTER":8.4165,"MEAN_ANOMALY":351.7268,"EPHEMERIS_TYPE":0,"CLASSIFICATION_TYPE":"U","NORAD_CAT_ID":57182,"ELEMENT_SET_NO":999,"REV_AT_EPOCH":15301,"BSTAR":0.00078285054,"MEAN_MOTION_DOT":0.00020438,"MEAN_MOTION_DDOT":0},{"OBJECT_NAME":"MONITOR-2 (RS39S)","OBJECT_ID":"2023-091U","EPOCH":"2026-04-04T05:57:26.668512","MEAN_MOTION":15.18241671,"ECCENTRICITY":0.00115673,"INCLINATION":97.5142,"RA_OF_ASC_NODE":153.0186,"ARG_OF_PERICENTER":18.1739,"MEAN_ANOMALY":341.9906,"EPHEMERIS_TYPE":0,"CLASSIFICATION_TYPE":"U","NORAD_CAT_ID":57184,"ELEMENT_SET_NO":999,"REV_AT_EPOCH":15273,"BSTAR":0.00049744906,"MEAN_MOTION_DOT":0.00010139,"MEAN_MOTION_DDOT":0},{"OBJECT_NAME":"SVYATOBOR 1 (RS60S)","OBJECT_ID":"2023-091X","EPOCH":"2026-04-04T05:21:29.970720","MEAN_MOTION":15.25392665,"ECCENTRICITY":0.00092426,"INCLINATION":97.5154,"RA_OF_ASC_NODE":157.6776,"ARG_OF_PERICENTER":2.7322,"MEAN_ANOMALY":357.3964,"EPHEMERIS_TYPE":0,"CLASSIFICATION_TYPE":"U","NORAD_CAT_ID":57187,"ELEMENT_SET_NO":999,"REV_AT_EPOCH":15303,"BSTAR":0.00067430432,"MEAN_MOTION_DOT":0.00016994,"MEAN_MOTION_DDOT":0},{"OBJECT_NAME":"VIZARD-METEO (RS38S)","OBJECT_ID":"2023-091Z","EPOCH":"2026-04-04T05:11:22.510464","MEAN_MOTION":15.33765055,"ECCENTRICITY":0.00065835,"INCLINATION":97.5144,"RA_OF_ASC_NODE":162.3329,"ARG_OF_PERICENTER":344.2389,"MEAN_ANOMALY":15.8647,"EPHEMERIS_TYPE":0,"CLASSIFICATION_TYPE":"U","NORAD_CAT_ID":57189,"ELEMENT_SET_NO":999,"REV_AT_EPOCH":15334,"BSTAR":0.00095341813,"MEAN_MOTION_DOT":0.00031161,"MEAN_MOTION_DDOT":0},{"OBJECT_NAME":"NANOZOND 1 (RS49S)","OBJECT_ID":"2023-091AA","EPOCH":"2026-04-04T01:20:10.872960","MEAN_MOTION":15.91403842,"ECCENTRICITY":0.00069138,"INCLINATION":97.4969,"RA_OF_ASC_NODE":176.6006,"ARG_OF_PERICENTER":260.7867,"MEAN_ANOMALY":99.2625,"EPHEMERIS_TYPE":0,"CLASSIFICATION_TYPE":"U","NORAD_CAT_ID":57190,"ELEMENT_SET_NO":999,"REV_AT_EPOCH":15428,"BSTAR":0.0024118703,"MEAN_MOTION_DOT":0.00768682,"MEAN_MOTION_DDOT":0.00024362244},{"OBJECT_NAME":"POLYTECH-UNIVERSE 3 (RS46S)","OBJECT_ID":"2023-091AB","EPOCH":"2026-04-04T05:15:35.106048","MEAN_MOTION":15.18435758,"ECCENTRICITY":0.00163706,"INCLINATION":97.5121,"RA_OF_ASC_NODE":152.4956,"ARG_OF_PERICENTER":32.6262,"MEAN_ANOMALY":327.5979,"EPHEMERIS_TYPE":0,"CLASSIFICATION_TYPE":"U","NORAD_CAT_ID":57191,"ELEMENT_SET_NO":999,"REV_AT_EPOCH":15272,"BSTAR":0.00048874302,"MEAN_MOTION_DOT":0.00010034,"MEAN_MOTION_DDOT":0},{"OBJECT_NAME":"UTMN 2 (RS27S)","OBJECT_ID":"2023-091AP","EPOCH":"2026-04-04T06:39:12.489696","MEAN_MOTION":15.3029586,"ECCENTRICITY":0.00075855,"INCLINATION":97.5144,"RA_OF_ASC_NODE":160.5555,"ARG_OF_PERICENTER":350.9067,"MEAN_ANOMALY":9.2035,"EPHEMERIS_TYPE":0,"CLASSIFICATION_TYPE":"U","NORAD_CAT_ID":57203,"ELEMENT_SET_NO":999,"REV_AT_EPOCH":15323,"BSTAR":0.00082227973,"MEAN_MOTION_DOT":0.0002409,"MEAN_MOTION_DDOT":0},{"OBJECT_NAME":"KUZGTU 1 (RS47S)","OBJECT_ID":"2023-091AV","EPOCH":"2026-04-04T05:07:11.938368","MEAN_MOTION":15.28230224,"ECCENTRICITY":0.0010946,"INCLINATION":97.5124,"RA_OF_ASC_NODE":158.0119,"ARG_OF_PERICENTER":6.0693,"MEAN_ANOMALY":354.0677,"EPHEMERIS_TYPE":0,"CLASSIFICATION_TYPE":"U","NORAD_CAT_ID":57217,"ELEMENT_SET_NO":999,"REV_AT_EPOCH":15307,"BSTAR":0.00081922594,"MEAN_MOTION_DOT":0.00022542,"MEAN_MOTION_DDOT":0},{"OBJECT_NAME":"SONATE-2","OBJECT_ID":"2024-043Q","EPOCH":"2026-04-03T22:15:53.546976","MEAN_MOTION":15.53524313,"ECCENTRICITY":0.00077062,"INCLINATION":97.5445,"RA_OF_ASC_NODE":240.1168,"ARG_OF_PERICENTER":115.77,"MEAN_ANOMALY":244.4348,"EPHEMERIS_TYPE":0,"CLASSIFICATION_TYPE":"U","NORAD_CAT_ID":59112,"ELEMENT_SET_NO":999,"REV_AT_EPOCH":11634,"BSTAR":0.0010452829,"MEAN_MOTION_DOT":0.00066855,"MEAN_MOTION_DDOT":0},{"OBJECT_NAME":"MESAT1","OBJECT_ID":"2024-125G","EPOCH":"2026-04-04T01:23:22.586784","MEAN_MOTION":15.56175386,"ECCENTRICITY":0.00126341,"INCLINATION":97.2402,"RA_OF_ASC_NODE":310.2117,"ARG_OF_PERICENTER":129.2887,"MEAN_ANOMALY":230.9491,"EPHEMERIS_TYPE":0,"CLASSIFICATION_TYPE":"U","NORAD_CAT_ID":60209,"ELEMENT_SET_NO":999,"REV_AT_EPOCH":9801,"BSTAR":0.0011530708,"MEAN_MOTION_DOT":0.00081575,"MEAN_MOTION_DDOT":0}]
