SALSAT                  
1 46495U 20068K   26093.94381268  .00015678  00000+0  56347-3 0  9999
2 46495  97.8863  92.5537 0009436 192.6370 167.4633 15.28700775304012
XW-3 (CAS-9)            
1 50466U 21131B   26094.26013400  .00000994  00000+0  32107-3 0  9993
2 50466  98.4952 187.0671 0003347 336.1467  23.9567 14.41285886224464
GREENCUBE (IO-117)      
1 53109U 22080E   26090.98863878 -.00000003  00000+0  00000+0 0  9996
2 53109  70.1536 325.1039 0008975 306.3934  53.5898  6.42583190 87104
UMKA 1 (RS40S)          
1 57172U 23091G   26094.25003423  .00012653  00000+0  58878-3 0  9992
2 57172  97.5119 153.2505 0013349  24.6398 335.5471 15.19999342152771
CUBESX-HSE 3 (RS42S)    
1 57178U 23091N   26094.21813318  .00023821  00000+0  83458-3 0  9997
2 57178  97.5151 158.9533 0010642   2.5564 357.5728 15.29422428153114
MONITOR-3 (RS58S)       
1 57180U 23091Q   26094.21960106  .00019701  00000+0  75691-3 0  9990
2 57180  97.5146 157.1820 0011767   8.3656 351.7777 15.26411137153006
MONITOR-4 (RS57S)       
1 57182U 23091S   26094.26880419  .00020438  00000+0  78285-3 0  9996
2 57182  97.5139 157.1979 0011714   8.4165 351.7268 15.26504679153013
MONITOR-2 (RS39S)       
1 57184U 23091U   26094.24822533  .00010139  00000+0  49745-3 0  9995
2 57184  97.5142 153.0186 0011567  18.1739 341.9906 15.18241671152734
SVYATOBOR 1 (RS60S)     
1 57187U 23091X   26094.22326355  .00016994  00000+0  67430-3 0  9993
2 57187  97.5154 157.6776 0009242   2.7322 357.3964 15.25392665153036
VIZARD-METEO (RS38S)    
1 57189U 23091Z   26094.21623276  .00031161  00000+0  95342-3 0  9992
2 57189  97.5144 162.3329 0006583 344.2389  15.8647 15.33765055153340
NANOZOND 1 (RS49S)      
1 57190U 23091AA  26094.05568140  .00768682  24362-3  24119-2 0  9993
2 57190  97.4969 176.6006 0006913 260.7867  99.2625 15.91403842154289
POLYTECH-UNIVERSE 3 (R*)
1 57191U 23091AB  26094.21915632  .00010034  00000+0  48874-3 0  9999
2 57191  97.5121 152.4956 0016370  32.6262 327.5979 15.18435758152726
UTMN 2 (RS27S)          
1 57203U 23091AP  26094.27722789  .00024090  00000+0  82228-3 0  9996
2 57203  97.5144 160.5555 0007585 350.9067   9.2035 15.30295860153233
KUZGTU 1 (RS47S)        
1 57217U 23091AV  26094.21333262  .00022542  00000+0  81923-3 0  9990
2 57217  97.5124 158.0119 0010946   6.0693 354.0677 15.28230224153078
SONATE-2                
1 59112U 24043Q   26093.92770309  .00066855  00000+0  10453-2 0  9992
2 59112  97.5445 240.1168 0007706 115.7700 244.4348 15.53524313116343
MESAT1                  
1 60209U 24125G   26094.05790031  .00081575  00000+0  11531-2 0  9995
2 60209  97.2402 310.2117 0012634 129.2887 230.9491 15.56175386 98014
